GOES 1 (SMS-C) [-]      
1 08366U 75100A   22204.22120354 -.00000214  00000+0  00000+0 0  9991
2 08366   8.1923 295.2841 0002282 223.2308 140.9334  1.00281248170786
GOES 2 [-]              
1 10061U 77048A   22204.15578484 -.00000237  00000+0  00000+0 0  9997
2 10061   9.7710 306.7147 0010548  31.1568 330.0420  0.99398696 32112
GOES 3 [-]              
1 10953U 78062A   22204.51927119 -.00000211  00000+0  00000+0 0  9999
2 10953  10.0986 311.2181 0003643 151.3535 191.2773  0.99366037114379
GOES 4 [-]              
1 11964U 80074A   22204.50254462  .00000071  00000+0  00000+0 0  9994
2 11964  11.0590 315.0401 0032988  77.4325 306.4613  0.99229682113309
GOES 5 [-]              
1 12472U 81049A   22204.29355928 -.00000255  00000+0  00000+0 0  9992
2 12472  11.8967 326.4042 0002551 153.3778 208.8844  1.00318942108560
GOES 6 [-]              
1 14050U 83041A   22204.29338487 -.00000252  00000+0  00000+0 0  9998
2 14050  12.4545 331.7066 0005489 142.5464 213.4893  1.00299045201723
GOES 7 [-]              
1 17561U 87022A   22204.55932553  .00000063  00000+0  00000+0 0  9993
2 17561  14.2112 348.2527 0006259  76.2671 275.8727  0.99903608112720
GOES 8 [-]              
1 23051U 94022A   22204.30816979 -.00000162  00000+0  00000+0 0  9999
2 23051  13.2060  23.9372 0007502  49.5748 164.1808  0.98907375110033
GOES 9 [-]              
1 23581U 95025A   22204.03783453  .00000009  00000+0  00000+0 0  9990
2 23581  12.6987  24.2697 0009188  96.6125 272.7273  0.98797660 98682
GOES 10 [-]             
1 24786U 97019A   22204.42362130 -.00000305  00000+0  00000+0 0  9991
2 24786  11.4590  30.4417 0025755 197.9353  17.1025  0.99128022 91941
GOES 11 [-]             
1 26352U 00022A   22204.31065056 -.00000143  00000+0  00000+0 0  9995
2 26352   8.7569  59.0411 0002226  69.1960 292.5418  0.99044764 38362
GOES 12 [-]             
1 26871U 01031A   22204.51085677 -.00000164  00000+0  00000+0 0  9998
2 26871   9.5797  47.9488 0006254 345.7052  24.0725  0.99136665 76644
EWS-G1 (GOES 13) [+]    
1 29155U 06018A   22204.46479120  .00000040  00000+0  00000+0 0  9992
2 29155   0.6874  96.7974 0004632  92.2750 340.5985  1.00274109 29099
GOES 14 [B]             
1 35491U 09033A   22204.55135769 -.00000090  00000+0  00000+0 0  9996
2 35491   0.4019  95.0427 0013823 116.4587 183.6300  1.00273143 47827
GOES 15 [B]             
1 36411U 10008A   22204.52827060  .00000056  00000+0  00000+0 0  9993
2 36411   0.3737 100.5661 0002289  41.6092 220.9805  1.00278336 45385
GOES 16 [+]             
1 41866U 16071A   22203.86360233 -.00000247  00000+0  00000+0 0  9992
2 41866   0.0565 235.3866 0000594 305.9375 354.9430  1.00271487 20826
GOES 17 [+]             
1 43226U 18022A   22204.53382763  .00000100  00000+0  00000+0 0  9996
2 43226   0.0886 257.2421 0000194 276.9673 181.9038  1.00271715 16133
GOES 18 [+]             
1 51850U 22021A   22204.53382763  .00000098  00000+0  00000+0 0  9998
2 51850   0.0501 104.6141 0002694 109.2548 142.5724  1.00271200  1496
